SKYKRAFT-1A             
1 55054U 23001AX  26068.71064616  .00008177  00000+0  30069-3 0  9991
2 55054  97.3349 127.6290 0011277 121.5092 238.7251 15.28083228176529
STARLINK-31068          
1 58623U 23203F   26068.05378877  .00000088  00000+0  12724-4 0  9996
2 58623  43.0055  70.7252 0001221 274.9229  85.1484 15.27576051123462
